FLOCK 3P-58             
1 41977U 17008AF  17321.65936054  .00005099  00000-0  21675-3 0  9993
2 41977  97.4794  22.5207 0008675  27.5557 332.6138 15.23461565 41891
FLOCK 3P-57             
1 41978U 17008AG  17321.12603760  .00001758  00000-0  76668-4 0  9992
2 41978  97.4789  22.0080 0008770  27.7502 332.4201 15.23484652 41653
FLOCK 3P-75             
1 41979U 17008AH  17321.71631047  .00002687  00000-0  11561-3 0  9999
2 41979  97.4814  22.6826 0008961  28.6094 331.5633 15.23482846 41893
FLOCK 3P-70             
1 41980U 17008AJ  17321.12349393  .00003718  00000-0  15874-3 0  9993
2 41980  97.4817  22.0982 0008955  30.0948 330.0802 15.23492717 41657
FLOCK 3P-73             
1 41981U 17008AK  17321.72335316  .00002863  00000-0  12295-3 0  9994
2 41981  97.4815  22.6769 0009185  28.8230 331.3513 15.23479021 41870
FLOCK 3P-88             
1 41982U 17008AL  17321.18683679  .00004146  00000-0  17670-3 0  9991
2 41982  97.4815  22.1575 0009040  30.2054 329.9702 15.23479935 40766
FLOCK 3P-85             
1 41983U 17008AM  17321.23852844  .00003309  00000-0  14142-3 0  9991
2 41983  97.4816  22.2486 0009017  33.4283 326.7522 15.23535345 41677
FLOCK 3P-79             
1 41984U 17008AN  17321.23961124  .00002076  00000-0  89897-4 0  9994
2 41984  97.4812  22.2463 0008735  33.2924 326.8861 15.23526503 41678
FLOCK 3P-86             
1 41985U 17008AP  17321.83170563  .00002478  00000-0  10671-3 0  9999
2 41985  97.4813  22.8295 0008592  30.8350 329.3390 15.23531267 41753
FLOCK 3P-36             
1 41986U 17008AQ  17321.17742127  .00003766  00000-0  16075-3 0  9993
2 41986  97.4800  22.1060 0008385  31.2447 328.9287 15.23491009 41147
FLOCK 3P-30             
1 41987U 17008AR  17321.23394440  .00004415  00000-0  18767-3 0  9994
2 41987  97.4798  22.1846 0008305  32.1972 327.9770 15.23537453 41624
FLOCK 3P-34             
1 41988U 17008AS  17321.70638502  .00005428  00000-0  23009-3 0  9997
2 41988  97.4794  22.6116 0008292  27.1637 333.0032 15.23525766 41222
FLOCK 3P-35             
1 41989U 17008AT  17321.24879074  .00002041  00000-0  88474-4 0  9994
2 41989  97.4790  22.1489 0008509  28.2381 331.9316 15.23505117 41158
FLOCK 3P-33             
1 41990U 17008AU  17321.83535658  .00006520  00000-0  27583-3 0  9997
2 41990  97.4793  22.7499 0008129  28.0898 332.0776 15.23515682 41249
LEMUR-2-SATCHMO         
1 41991U 17008AV  17321.31031281  .00002370  00000-0  10448-3 0  9995
2 41991  97.4786  22.0631 0008539  31.9908 328.1845 15.22770467 41159
LEMUR-2-MIA-GRACE       
1 41992U 17008AW  17321.20718887  .00003227  00000-0  13946-3 0  9996
2 41992  97.4791  22.0567 0008443  32.5020 327.6735 15.23174189 41141
LEMUR-2-SMITA-SHARAD    
1 41993U 17008AX  17321.42292615  .00002484  00000-0  10884-3 0  9999
2 41993  97.4786  22.2211 0008463  31.4392 328.7348 15.22928875 41179
LEMUR-2-SPIRE-MINIONS   
1 41994U 17008AY  17321.41175692  .00003198  00000-0  13842-3 0  9994
2 41994  97.4788  22.2359 0008453  30.9958 329.1776 15.23134757 41175
LEMUR-2-RDEATON         
1 41995U 17008AZ  17321.21988965  .00002402  00000-0  10514-3 0  9998
2 41995  97.4789  22.0360 0009875  43.0585 317.1423 15.22982525 41828
LEMUR-2-NOGUECORREIG    
1 41996U 17008BA  17321.79243283  .00002535  00000-0  11020-3 0  9999
2 41996  97.4792  22.6553 0009717  41.9982 318.1998 15.23165743 41134
LEMUR-2-JOBANPUTRA      
1 41997U 17008BB  17321.24825637  .00002987  00000-0  12884-3 0  9999
2 41997  97.4794  22.1581 0009722  43.5657 316.6345 15.23296915 41142
LEMUR-2-TACHIKOMA       
1 41998U 17008BC  17321.22489263  .00002398  00000-0  10527-3 0  9997
2 41998  97.4787  22.0275 0009806  43.4948 316.7060 15.22883092 41062
BGUSAT                  
1 41999U 17008BD  17321.55837165  .00004025  00000-0  17109-3 0  9994
2 41999  97.4800  22.5242 0009581  43.8526 316.3470 15.23585597 41199
DIDO-2                  
1 42000U 17008BE  17321.82893940  .00001842  00000-0  81993-4 0  9998
2 42000  97.4780  22.5946 0009795  41.9665 318.2320 15.22715908 41231
FLOCK 3P-49             
1 42001U 17008BF  17321.36177845  .00005815  00000-0  24616-3 0  9999
2 42001  97.4797  22.3133 0009305  45.0011 315.1978 15.23531085 41691
FLOCK 3P-67             
1 42002U 17008BG  17321.16866423  .00003543  00000-0  15082-3 0  9998
2 42002  97.4795  22.1063 0009171  44.7993 315.3983 15.23617711 41820
FLOCK 3P-68             
1 42003U 17008BH  17321.23821253  .00004950  00000-0  21006-3 0  9995
2 42003  97.4793  22.1618 0009361  43.4860 316.7114 15.23522211 41477
FLOCK 3P-41             
1 42004U 17008BJ  17321.42280792  .00004119  00000-0  17536-3 0  9994
2 42004  97.4793  22.3686 0009106  45.1348 315.0627 15.23517987 41703
FLOCK 3P-45             
1 42005U 17008BK  17321.22994095  .00004584  00000-0  19424-3 0  9995
2 42005  97.4794  22.1767 0009085  45.5791 314.6187 15.23617648 41830
FLOCK 3P-48             
1 42006U 17008BL  17321.82002348  .00002541  00000-0  10940-3 0  9998
2 42006  97.4796  22.7729 0009015  44.5911 315.6049 15.23507028 41707
FLOCK 3P-43             
1 42007U 17008BM  17321.42429349  .00003592  00000-0  15338-3 0  9992
2 42007  97.4795  22.3718 0008902  46.0739 314.1232 15.23504519 41867
FLOCK 3P-42             
1 42008U 17008BN  17321.16068999  .00003321  00000-0  14204-3 0  9995
2 42008  97.4792  22.1057 0009052  46.4285 313.7702 15.23503118 41744
FLOCK 3P-61             
1 42009U 17008BP  17321.42196500  .00003266  00000-0  13977-3 0  9999
2 42009  97.4794  22.3747 0008987  47.7880 312.4118 15.23498724 41839
FLOCK 3P-40             
1 42010U 17008BQ  17321.48106907  .00002248  00000-0  97142-4 0  9995
2 42010  97.4788  22.4293 0008909  48.2351 311.9646 15.23502919 41106
FLOCK 3P-16             
1 42011U 17008BR  17321.40313909  .00002841  00000-0  12209-3 0  9999
2 42011  97.4788  22.3835 0008625  49.1718 311.0266 15.23472870 41033
FLOCK 3P-14             
1 42012U 17008BS  17321.80083307  .00003898  00000-0  16590-3 0  9990
2 42012  97.4794  22.7843 0008813  50.0787 310.1223 15.23568063 41718
FLOCK 3P-53             
1 42013U 17008BT  17321.73842604  .00002393  00000-0  10299-3 0  9995
2 42013  97.4783  22.6867 0008649  48.5149 311.6829 15.23576716 41704
FLOCK 3P-54             
1 42014U 17008BU  17321.60665218  .00002129  00000-0  92261-4 0  9993
2 42014  97.4786  22.5708 0008637  49.3221 310.8765 15.23468939 41895
PEASSS                  
1 42015U 17008BV  17321.84712579  .00002442  00000-0  10551-3 0  9992
2 42015  97.4775  22.8396 0007836  51.6404 308.5536 15.23424297 41731
AL-FARABI 1             
1 42016U 17008BW  17321.55917317  .00002940  00000-0  12543-3 0  9994
2 42016  97.4781  22.6220 0007732  53.2232 306.9713 15.23694910 41814
NAYIF-1 (EO-88)         
1 42017U 17008BX  17321.55637951  .00002967  00000-0  12649-3 0  9994
2 42017  97.4780  22.6235 0007724  53.4327 306.7619 15.23713509 41839
FLOCK 3P-23             
1 42018U 17008BY  17321.60528751  .00002125  00000-0  92115-4 0  9991
2 42018  97.4781  22.4107 0009175  23.9457 336.2204 15.23460840 40659
FLOCK 3P-76             
1 42019U 17008BZ  17321.83822318  .00003733  00000-0  15920-3 0  9997
2 42019  97.4816  22.8348 0009017  29.5226 330.6519 15.23520014 41750
FLOCK 3P-69             
1 42020U 17008CA  17321.83684413  .00004557  00000-0  19375-3 0  9994
2 42020  97.4815  22.8359 0008823  28.7690 331.4031 15.23510387 40640
FLOCK 3P-84             
1 42021U 17008CB  17321.25433100  .00002991  00000-0  12843-3 0  9999
2 42021  97.4813  22.2198 0009281  29.9035 330.2730 15.23455400 41670
FLOCK 3P-59             
1 42022U 17008CC  17321.25616775  .00004649  00000-0  19737-3 0  9992
2 42022  97.4794  22.1429 0008666  30.9982 329.1764 15.23547327 40699
FLOCK 3P-32             
1 42023U 17008CD  17321.71816911  .00004582  00000-0  19488-3 0  9997
2 42023  97.4792  22.6005 0008564  26.2265 333.9404 15.23499514 41905
FLOCK 3P-71             
1 42024U 17008CE  17321.60339609  .00005294  00000-0  22523-3 0  9995
2 42024  97.4821  22.5412 0009095  29.6944 330.4807 15.23408687 40753
FLOCK 3P-77             
1 42025U 17008CF  17321.83926983  .00002279  00000-0  98391-4 0  9995
2 42025  97.4814  22.8239 0008924  30.1065 330.0683 15.23514674 41761
FLOCK 3P-80             
1 42026U 17008CG  17321.82383744  .00004721  00000-0  20043-3 0  9999
2 42026  97.4813  22.8402 0008535  30.8819 329.2918 15.23545245 39907
FLOCK 3P-66             
1 42027U 17008CH  17321.23720340  .00004602  00000-0  19548-3 0  9998
2 42027  97.4796  22.1736 0009289  42.9994 317.1967 15.23533546 41786
FLOCK 3P-65             
1 42028U 17008CJ  17321.23538800  .00004277  00000-0  18191-3 0  9998
2 42028  97.4796  22.1754 0009185  43.1478 317.0477 15.23525809 41689
FLOCK 3P-50             
1 42029U 17008CK  17321.23192011  .00005122  00000-0  21719-3 0  9999
2 42029  97.4799  22.1874 0009093  45.5074 314.6905 15.23538004 41008
FLOCK 3P-52             
1 42030U 17008CL  17321.23321127  .00004201  00000-0  17865-3 0  9997
2 42030  97.4796  22.1739 0009145  44.4320 315.7649 15.23545081 41771
FLOCK 3P-46             
1 42031U 17008CM  17321.81918520  .00001947  00000-0  84491-4 0  9995
2 42031  97.4788  22.7623 0009076  43.4260 316.7691 15.23524027 41894
FLOCK 3P-47             
1 42032U 17008CN  17321.36111130  .00003453  00000-0  14748-3 0  9999
2 42032  97.4792  22.3011 0009088  45.7293 314.4688 15.23528308 41674
FLOCK 3P-44             
1 42033U 17008CP  17321.61685052  .00002123  00000-0  91868-4 0  9999
2 42033  97.4791  22.5796 0009079  47.0877 313.1120 15.23514086 40460
FLOCK 3P-64             
1 42034U 17008CQ  17321.81375589  .00003207  00000-0  13731-3 0  9999
2 42034  97.4791  22.7624 0008993  46.0161 314.1816 15.23493617 41912
FLOCK 3P-63             
1 42035U 17008CR  17321.61430992  .00002397  00000-0  10331-3 0  9990
2 42035  97.4789  22.5644 0008965  46.8842 313.3144 15.23521716 39850
